start=new Date('2023-05-24T00:00:00.000Z').valueOf();
sats=[{"MEAN_MOTION_DDOT":"0.0000000000000","BSTAR":"0.00081617000000","GP_ID":"232403017","INCLINATION":"53.0541","REV_AT_EPOCH":"12638","OBJECT_ID":"2021-012L","TIME_SYSTEM":"UTC","EPOCH":"2023-05-23T20:51:13.355712","ELEMENT_SET_NO":"999","TLE_LINE1":"1 47630U 21012L   23143.86890458  .00011897  00000-0  81617-3 0  9999","LAUNCH_DATE":"2021-02-16","SITE":"AFETR","APOAPSIS":"547.783","TLE_LINE2":"2 47630  53.0541 314.3458 0000828 110.1007 250.0071 15.06401195126383","CENTER_NAME":"EARTH","RA_OF_ASC_NODE":"314.3458","ECCENTRICITY":"0.00008280","OBJECT_NAME":"STARLINK-1983","PERIAPSIS":"546.636","SEMIMAJOR_AXIS":"6925.345","EPHEMERIS_TYPE":"0","PERIOD":"95.592","NORAD_CAT_ID":"47630","COUNTRY_CODE":"US","OBJECT_TYPE":"PAYLOAD","RCS_SIZE":"LARGE","CLASSIFICATION_TYPE":"U","FILE":"3915766","MEAN_MOTION_DOT":"0.00011897","REF_FRAME":"TEME","MEAN_MOTION":"15.06401195","DECAY_DATE":null,"MEAN_ELEMENT_THEORY":"SGP4","MEAN_ANOMALY":"250.0071","ARG_OF_PERICENTER":"110.1007"},{"LAUNCH_DATE":"2021-02-16","TLE_LINE1":"1 47632U 21012N   23143.53019193  .00023811  00000-0  16123-2 0  9992","RA_OF_ASC_NODE":"240.7822","APOAPSIS":"547.940","SITE":"AFETR","TLE_LINE2":"2 47632  53.0535 240.7822 0001017  91.3479 268.7627 15.06392853127383","CENTER_NAME":"EARTH","BSTAR":"0.00161230000000","GP_ID":"232403769","MEAN_MOTION_DDOT":"0.0000000000000","TIME_SYSTEM":"UTC","EPOCH":"2023-05-23T12:43:28.582752","ELEMENT_SET_NO":"999","INCLINATION":"53.0535","OBJECT_ID":"2021-012N","REV_AT_EPOCH":"12738","MEAN_MOTION_DOT":"0.00023811","REF_FRAME":"TEME","MEAN_MOTION":"15.06392853","DECAY_DATE":null,"MEAN_ELEMENT_THEORY":"SGP4","FILE":"3915766","ARG_OF_PERICENTER":"91.3479","MEAN_ANOMALY":"268.7627","SEMIMAJOR_AXIS":"6925.370","ECCENTRICITY":"0.00010170","OBJECT_NAME":"STARLINK-1992","PERIAPSIS":"546.531","RCS_SIZE":"LARGE","COUNTRY_CODE":"US","OBJECT_TYPE":"PAYLOAD","CLASSIFICATION_TYPE":"U","EPHEMERIS_TYPE":"0","PERIOD":"95.593","NORAD_CAT_ID":"47632"},{"REF_FRAME":"TEME","MEAN_MOTION_DOT":"0.00020501","MEAN_MOTION":"15.06411219","MEAN_ELEMENT_THEORY":"SGP4","DECAY_DATE":null,"FILE":"3915766","ARG_OF_PERICENTER":"52.1040","MEAN_ANOMALY":"308.0039","SEMIMAJOR_AXIS":"6925.314","ECCENTRICITY":"0.00010020","OBJECT_NAME":"STARLINK-2009","PERIAPSIS":"546.485","RCS_SIZE":"LARGE","COUNTRY_CODE":"US","OBJECT_TYPE":"PAYLOAD","CLASSIFICATION_TYPE":"U","EPHEMERIS_TYPE":"0","PERIOD":"95.591","NORAD_CAT_ID":"47633","LAUNCH_DATE":"2021-02-16","TLE_LINE1":"1 47633U 21012P   23143.94720564  .00020501  00000-0  13908-2 0  9990","RA_OF_ASC_NODE":"333.9366","APOAPSIS":"547.873","SITE":"AFETR","TLE_LINE2":"2 47633  53.0550 333.9366 0001002  52.1040 308.0039 15.06411219126159","CENTER_NAME":"EARTH","BSTAR":"0.00139080000000","GP_ID":"232404018","MEAN_MOTION_DDOT":"0.0000000000000","TIME_SYSTEM":"UTC","EPOCH":"2023-05-23T22:43:58.567296","ELEMENT_SET_NO":"999","INCLINATION":"53.0550","OBJECT_ID":"2021-012P","REV_AT_EPOCH":"12615"},{"LAUNCH_DATE":"2021-02-16","TLE_LINE1":"1 47634U 21012Q   23143.92234532  .00020613  00000-0  13986-2 0  9994","RA_OF_ASC_NODE":"334.0203","APOAPSIS":"547.931","SITE":"AFETR","CENTER_NAME":"EARTH","TLE_LINE2":"2 47634  53.0545 334.0203 0001044 112.9611 247.1488 15.06401901126126","GP_ID":"232402267","BSTAR":"0.00139860000000","MEAN_MOTION_DDOT":"0.0000000000000","TIME_SYSTEM":"UTC","ELEMENT_SET_NO":"999","EPOCH":"2023-05-23T22:08:10.635648","REV_AT_EPOCH":"12612","INCLINATION":"53.0545","OBJECT_ID":"2021-012Q","REF_FRAME":"TEME","MEAN_MOTION_DOT":"0.00020613","MEAN_MOTION":"15.06401901","MEAN_ELEMENT_THEORY":"SGP4","DECAY_DATE":null,"FILE":"3915766","ARG_OF_PERICENTER":"112.9611","MEAN_ANOMALY":"247.1488","SEMIMAJOR_AXIS":"6925.343","ECCENTRICITY":"0.00010440","PERIAPSIS":"546.485","OBJECT_NAME":"STARLINK-2010","CLASSIFICATION_TYPE":"U","OBJECT_TYPE":"PAYLOAD","COUNTRY_CODE":"US","RCS_SIZE":"LARGE","EPHEMERIS_TYPE":"0","NORAD_CAT_ID":"47634","PERIOD":"95.592"},{"SITE":"AFETR","APOAPSIS":"548.130","TLE_LINE2":"2 47635  53.0532 240.6931 0001302  90.6360 269.4778 15.06395104127401","CENTER_NAME":"EARTH","RA_OF_ASC_NODE":"240.6931","TLE_LINE1":"1 47635U 21012R   23143.54956863  .00025312  00000-0  17123-2 0  9999","LAUNCH_DATE":"2021-02-16","OBJECT_ID":"2021-012R","INCLINATION":"53.0532","REV_AT_EPOCH":"12740","TIME_SYSTEM":"UTC","EPOCH":"2023-05-23T13:11:22.729632","ELEMENT_SET_NO":"999","MEAN_MOTION_DDOT":"0.0000000000000","BSTAR":"0.00171230000000","GP_ID":"232402517","MEAN_ANOMALY":"269.4778","ARG_OF_PERICENTER":"90.6360","FILE":"3915766","MEAN_MOTION":"15.06395104","MEAN_MOTION_DOT":"0.00025312","REF_FRAME":"TEME","MEAN_ELEMENT_THEORY":"SGP4","DECAY_DATE":null,"EPHEMERIS_TYPE":"0","PERIOD":"95.592","NORAD_CAT_ID":"47635","OBJECT_TYPE":"PAYLOAD","COUNTRY_CODE":"US","RCS_SIZE":"LARGE","CLASSIFICATION_TYPE":"U","ECCENTRICITY":"0.00013020","OBJECT_NAME":"STARLINK-2012","PERIAPSIS":"546.327","SEMIMAJOR_AXIS":"6925.364"},{"OBJECT_NAME":"STARLINK-2013","PERIAPSIS":"546.545","ECCENTRICITY":"0.00009500","SEMIMAJOR_AXIS":"6925.338","PERIOD":"95.592","NORAD_CAT_ID":"47636","EPHEMERIS_TYPE":"0","OBJECT_TYPE":"PAYLOAD","COUNTRY_CODE":"US","RCS_SIZE":"LARGE","CLASSIFICATION_TYPE":"U","FILE":"3915766","DECAY_DATE":null,"MEAN_ELEMENT_THEORY":"SGP4","MEAN_MOTION_DOT":"0.00013052","REF_FRAME":"TEME","MEAN_MOTION":"15.06403398","MEAN_ANOMALY":"249.0719","ARG_OF_PERICENTER":"111.0372","MEAN_MOTION_DDOT":"0.0000000000000","BSTAR":"0.00089339000000","GP_ID":"232403269","OBJECT_ID":"2021-012S","INCLINATION":"53.0549","REV_AT_EPOCH":"12639","EPOCH":"2023-05-23T20:14:03.465888","ELEMENT_SET_NO":"999","TIME_SYSTEM":"UTC","TLE_LINE1":"1 47636U 21012S   23143.84309567  .00013052  00000-0  89339-3 0  9993","LAUNCH_DATE":"2021-02-16","TLE_LINE2":"2 47636  53.0549 314.3751 0000950 111.0372 249.0719 15.06403398126399","CENTER_NAME":"EARTH","APOAPSIS":"547.861","SITE":"AFETR","RA_OF_ASC_NODE":"314.3751"},{"RA_OF_ASC_NODE":"314.2105","APOAPSIS":"547.799","SITE":"AFETR","TLE_LINE2":"2 47637  53.0543 314.2105 0000802  86.6474 273.4607 15.06390354126419","CENTER_NAME":"EARTH","LAUNCH_DATE":"2021-02-16","TLE_LINE1":"1 47637U 21012T   23143.87994773  .00021369  00000-0  14495-2 0  9996","TIME_SYSTEM":"UTC","EPOCH":"2023-05-23T21:07:07.483872","ELEMENT_SET_NO":"999","INCLINATION":"53.0543","OBJECT_ID":"2021-012T","REV_AT_EPOCH":"12641","BSTAR":"0.00144950000000","GP_ID":"232403518","MEAN_MOTION_DDOT":"0.0000000000000","ARG_OF_PERICENTER":"86.6474","MEAN_ANOMALY":"273.4607","REF_FRAME":"TEME","MEAN_MOTION_DOT":"0.00021369","MEAN_MOTION":"15.06390354","DECAY_DATE":null,"MEAN_ELEMENT_THEORY":"SGP4","FILE":"3915766","RCS_SIZE":"LARGE","COUNTRY_CODE":"US","OBJECT_TYPE":"PAYLOAD","CLASSIFICATION_TYPE":"U","EPHEMERIS_TYPE":"0","PERIOD":"95.593","NORAD_CAT_ID":"47637","SEMIMAJOR_AXIS":"6925.378","ECCENTRICITY":"0.00008020","OBJECT_NAME":"STARLINK-2014","PERIAPSIS":"546.688"},{"MEAN_MOTION_DDOT":"0.0000000000000","BSTAR":"0.00163260000000","GP_ID":"232402768","OBJECT_ID":"2021-012U","INCLINATION":"53.0526","REV_AT_EPOCH":"12738","TIME_SYSTEM":"UTC","EPOCH":"2023-05-23T13:06:04.324032","ELEMENT_SET_NO":"999","TLE_LINE1":"1 47638U 21012U   23143.54588338  .00024123  00000-0  16326-2 0  9993","LAUNCH_DATE":"2021-02-16","SITE":"AFETR","APOAPSIS":"548.322","TLE_LINE2":"2 47638  53.0526 240.7136 0001625  57.9962 302.1185 15.06405578127388","CENTER_NAME":"EARTH","RA_OF_ASC_NODE":"240.7136","ECCENTRICITY":"0.00016250","OBJECT_NAME":"STARLINK-2015","PERIAPSIS":"546.071","SEMIMAJOR_AXIS":"6925.331","EPHEMERIS_TYPE":"0","NORAD_CAT_ID":"47638","PERIOD":"95.592","COUNTRY_CODE":"US","RCS_SIZE":"LARGE","OBJECT_TYPE":"PAYLOAD","CLASSIFICATION_TYPE":"U","FILE":"3915766","REF_FRAME":"TEME","MEAN_MOTION_DOT":"0.00024123","MEAN_MOTION":"15.06405578","MEAN_ELEMENT_THEORY":"SGP4","DECAY_DATE":null,"MEAN_ANOMALY":"302.1185","ARG_OF_PERICENTER":"57.9962"},{"LAUNCH_DATE":"2021-02-16","TLE_LINE1":"1 47639U 21012V   23143.92418437  .00020180  00000-0  13697-2 0  9995","RA_OF_ASC_NODE":"314.0123","APOAPSIS":"547.898","SITE":"AFETR","TLE_LINE2":"2 47639  53.0540 314.0123 0000995 105.3854 254.7245 15.06401383126392","CENTER_NAME":"EARTH","BSTAR":"0.00136970000000","GP_ID":"232403018","MEAN_MOTION_DDOT":"0.0000000000000","TIME_SYSTEM":"UTC","EPOCH":"2023-05-23T22:10:49.529568","ELEMENT_SET_NO":"999","REV_AT_EPOCH":"12639","OBJECT_ID":"2021-012V","INCLINATION":"53.0540","MEAN_MOTION_DOT":"0.00020180","MEAN_MOTION":"15.06401383","REF_FRAME":"TEME","DECAY_DATE":null,"MEAN_ELEMENT_THEORY":"SGP4","FILE":"3915766","ARG_OF_PERICENTER":"105.3854","MEAN_ANOMALY":"254.7245","SEMIMAJOR_AXIS":"6925.344","ECCENTRICITY":"0.00009950","OBJECT_NAME":"STARLINK-2016","PERIAPSIS":"546.520","COUNTRY_CODE":"US","OBJECT_TYPE":"PAYLOAD","RCS_SIZE":"LARGE","CLASSIFICATION_TYPE":"U","EPHEMERIS_TYPE":"0","PERIOD":"95.592","NORAD_CAT_ID":"47639"},{"ARG_OF_PERICENTER":"116.3471","MEAN_ANOMALY":"243.7607","MEAN_MOTION":"15.06404328","MEAN_MOTION_DOT":"0.00018321","REF_FRAME":"TEME","DECAY_DATE":null,"MEAN_ELEMENT_THEORY":"SGP4","FILE":"3915766","COUNTRY_CODE":"US","RCS_SIZE":"LARGE","OBJECT_TYPE":"PAYLOAD","CLASSIFICATION_TYPE":"U","EPHEMERIS_TYPE":"0","NORAD_CAT_ID":"47640","PERIOD":"95.592","SEMIMAJOR_AXIS":"6925.335","ECCENTRICITY":"0.00008650","OBJECT_NAME":"STARLINK-2018","PERIAPSIS":"546.601","RA_OF_ASC_NODE":"334.3355","SITE":"AFETR","APOAPSIS":"547.799","TLE_LINE2":"2 47640  53.0541 334.3355 0000865 116.3471 243.7607 15.06404328126123","CENTER_NAME":"EARTH","LAUNCH_DATE":"2021-02-16","TLE_LINE1":"1 47640U 21012W   23143.85231088  .00018321  00000-0  12455-2 0  9999","TIME_SYSTEM":"UTC","EPOCH":"2023-05-23T20:27:19.660032","ELEMENT_SET_NO":"999","REV_AT_EPOCH":"12612","INCLINATION":"53.0541","OBJECT_ID":"2021-012W","BSTAR":"0.00124550000000","GP_ID":"232403770","MEAN_MOTION_DDOT":"0.0000000000000"}];
